NORAD_CAT_ID,OBJECT_NAME,OBJECT_TYPE,EPOCH,MEAN_MOTION,ECCENTRICITY,INCLINATION,RA_OF_ASC_NODE,ARG_OF_PERICENTER,MEAN_ANOMALY,BSTAR,MEAN_MOTION_DOT,MEAN_MOTION_DDOT,TLE_LINE0,TLE_LINE1,TLE_LINE2,SEMIMAJOR_AXIS,PERIOD,APOGEE,PERIGEE,DECAYED
53774.0,STARLINK-4719,PAYLOAD,2022-09-19 18:00:00,15.731681699999998,0.0001136,53.2149,224.0955,104.1435,313.1666,0.00021953,0.00030259,0.0,0 STARLINK-4719,1 53774U 22111B   22262.75001157  .00030259  00000-0  21953-3 0  9995,2 53774  53.2149 224.0955 0001136 104.1435 313.1666 15.73168170  1307,6727.986,91.535,350.615,349.087,0.0
53774.0,STARLINK-4719,PAYLOAD,2022-09-19 22:00:00,15.73199328,0.0001163,53.215,223.2709,108.1502,173.6019,-0.00014274,-0.00020602,0.0,0 STARLINK-4719,1 53774U 22111B   22262.91667824 -.00020602  00000-0 -14274-3 0  9993,2 53774  53.2150 223.2709 0001163 108.1502 173.6019 15.73199328  1306,6727.897,91.533,350.545,348.98,0.0
53774.0,STARLINK-4719,PAYLOAD,2022-09-20 14:00:01,15.73242783,0.0001075,53.2152,219.9725,101.4747,358.1149,-0.0005092,-0.00071606,0.0,0 STARLINK-4719,1 53774U 22111B   22263.58334491 -.00071606  00000-0 -50920-3 0  9996,2 53774  53.2152 219.9725 0001075 101.4747 358.1149 15.73242783  1305,6727.773,91.531,350.361,348.915,0.0
53774.0,STARLINK-4719,PAYLOAD,2022-09-20 22:00:01,15.73214683,0.0001288,53.2156,218.3223,107.7247,80.854,7.043199999999999e-05,9.282e-05,0.0,0 STARLINK-4719,1 53774U 22111B   22263.91668981  .00009282  00000-0  70432-4 0  9997,2 53774  53.2156 218.3223 0001288 107.7247  80.8540 15.73214683  1486,6727.853,91.532,350.585,348.852,0.0
53774.0,STARLINK-4719,PAYLOAD,2022-09-21 14:00:01,15.73174201,0.0001217,53.2152,215.0237,104.2428,262.1525,-4.8307e-05,-7.386e-05,0.0,0 STARLINK-4719,1 53774U 22111B   22264.58334491 -.00007386  00000-0 -48307-4 0  9998,2 53774  53.2152 215.0237 0001217 104.2428 262.1525 15.73174201  1586,6727.969,91.535,350.653,349.015,0.0
53774.0,STARLINK-4719,PAYLOAD,2022-09-21 22:00:00,15.73191104,0.000132,53.2154,213.374,109.4128,345.8739,0.00032418,0.00045104,0.0,0 STARLINK-4719,1 53774U 22111B   22264.91667824  .00045104  00000-0  32418-3 0  9997,2 53774  53.2154 213.3740 0001320 109.4128 345.8739 15.73191104  1641,6727.920999999999,91.534,350.6740000000001,348.897,0.0
53774.0,STARLINK-4719,PAYLOAD,2022-09-22 14:00:01,15.73212119,0.0001053,53.2157,210.0751,110.0255,163.1331,-0.00010591,-0.00015463,0.0,0 STARLINK-4719,1 53774U 22111B   22265.58334491 -.00015463  00000-0 -10591-3 0  9997,2 53774  53.2157 210.0751 0001053 110.0255 163.1331 15.73212119  1742,6727.861,91.532,350.434,349.017,0.0
53774.0,STARLINK-4719,PAYLOAD,2022-09-22 22:00:00,15.73204343,0.0001276,53.2161,208.4253,110.8794,251.2241,8.2203e-06,5.34e-06,0.0,0 STARLINK-4719,1 53774U 22111B   22265.91667824  .00000534  00000-0  82203-5 0  9995,2 53774  53.2161 208.4253 0001276 110.8794 251.2241 15.73204343  1309,6727.8830000000025,91.533,350.606,348.889,0.0
53774.0,STARLINK-4719,PAYLOAD,2022-09-23 06:00:00,15.73198305,0.0001186,53.2161,206.7777,99.7216,351.3167,0.00035396,0.00049344,0.0,0 STARLINK-4719,1 53774U 22111B   22266.25001157  .00049344  00000-0  35396-3 0  9995,2 53774  53.2161 206.7777 0001186  99.7216 351.3167 15.73198305  1854,6727.9,91.533,350.56300000000016,348.967,0.0
53774.0,STARLINK-4719,PAYLOAD,2022-09-23 14:00:01,15.73199497,0.0001032,53.2161,205.1263,112.9966,67.0021,6.7876e-05,8.916e-05,0.0,0 STARLINK-4719,1 53774U 22111B   22266.58334491  .00008916  00000-0  67876-4 0  9990,2 53774  53.2161 205.1263 0001032 112.9966  67.0021 15.73199497  1300,6727.897,91.533,350.456,349.06699999999995,0.0
53774.0,STARLINK-4719,PAYLOAD,2022-09-23 20:00:01,15.73215332,0.0001177,53.2161,203.8888,119.6873,37.0676,0.00026249,0.00036402,0.0,0 STARLINK-4719,1 53774U 22111B   22266.83335648  .00036402  00000-0  26249-3 0  9992,2 53774  53.2161 203.8888 0001177 119.6873  37.0676 15.73215332  1949,6727.851,91.532,350.5080000000001,348.925,0.0
53774.0,STARLINK-4719,PAYLOAD,2022-09-24 14:00:01,15.73189094,0.0001349,53.2165,200.1777,113.2877,333.6669,0.00030701,0.00042666,0.0,0 STARLINK-4719,1 53774U 22111B   22267.58335648  .00042666  00000-0  30701-3 0  9992,2 53774  53.2165 200.1777 0001349 113.2877 333.6669 15.73189094  2061,6727.926,91.534,350.699,348.884,0.0
53774.0,STARLINK-4719,PAYLOAD,2022-09-24 22:00:00,15.73260399,0.0001385,53.2168,198.5284,115.1358,60.6778,-0.00060373,-0.0008472,0.0,0 STARLINK-4719,1 53774U 22111B   22267.91667824 -.00084720  00000-0 -60373-3 0  9990,2 53774  53.2168 198.5284 0001385 115.1358  60.6778 15.73260399  1304,6727.723000000001,91.53,350.52,348.656,0.0
53774.0,STARLINK-4719,PAYLOAD,2022-09-25 06:00:00,15.73177109,0.0001065,53.217,196.883,103.866,160.9168,-3.7676e-05,-5.898e-05,0.0,0 STARLINK-4719,1 53774U 22111B   22268.25001157 -.00005898  00000-0 -37676-4 0  9999,2 53774  53.2170 196.8830 0001065 103.8660 160.9168 15.73177109  2168,6727.96,91.535,350.542,349.1090000000001,0.0
53774.0,STARLINK-4719,PAYLOAD,2022-09-25 14:00:01,15.73057494,0.0001312,53.2174,195.2333,109.7458,243.9644,0.00091483,0.00128968,0.0,0 STARLINK-4719,1 53774U 22111B   22268.58334491  .00128968  00000-0  91483-3 0  9992,2 53774  53.2174 195.2333 0001312 109.7458 243.9644 15.73057494  1308,6728.301,91.541,351.0490000000001,349.284,0.0
53774.0,STARLINK-4719,PAYLOAD,2022-09-25 22:00:01,15.73203932,8.87e-05,53.2174,193.5861,118.8118,323.7594,-4.5853e-07,-6.84e-06,0.0,0 STARLINK-4719,1 53774U 22111B   22268.91668981 -.00000684  00000-0 -45853-6 0  9992,2 53774  53.2174 193.5861 0000887 118.8118 323.7594 15.73203932  1306,6727.884,91.533,350.346,349.152,0.0
53774.0,STARLINK-4719,PAYLOAD,2022-09-26 10:00:00,15.73228006,0.0001248,53.2163,191.107,114.5377,281.3543,-2.9927e-05,-4.823e-05,0.0,0 STARLINK-4719,1 53774U 22111B   22269.41667824 -.00004823  00000-0 -29927-4 0  9994,2 53774  53.2163 191.1070 0001248 114.5377 281.3543 15.73228006  2349,6727.815,91.532,350.52,348.841,0.0
53774.0,STARLINK-4719,PAYLOAD,2022-09-26 14:00:01,15.73218991,0.0001294,53.2167,190.2812,122.3768,137.9963,0.00012632,0.00017159,0.0,0 STARLINK-4719,1 53774U 22111B   22269.58334491  .00017159  00000-0  12632-3 0  9991,2 53774  53.2167 190.2812 0001294 122.3768 137.9963 15.73218991  1308,6727.840999999999,91.532,350.577,348.835,0.0
53774.0,STARLINK-4719,PAYLOAD,2022-09-26 22:00:00,15.73241937,0.0001154,53.2168,188.6321,125.9356,223.3898,-0.00052273,-0.00073473,0.0,0 STARLINK-4719,1 53774U 22111B   22269.91667824 -.00073473  00000-0 -52273-3 0  9995,2 53774  53.2168 188.6321 0001154 125.9356 223.3898 15.73241937  1305,6727.776,91.531,350.417,348.86400000000015,0.0
53774.0,STARLINK-4719,PAYLOAD,2022-09-27 06:00:00,15.73152889,8.04e-05,53.2165,186.9841,123.3587,314.9223,0.00063753,0.0008962999999999,0.0,0 STARLINK-4719,1 53774U 22111B   22270.25001157  .00089630  00000-0  63753-3 0  9990,2 53774  53.2165 186.9841 0000804 123.3587 314.9223 15.73152889  2485,6728.029,91.536,350.435,349.35400000000016,0.0
53774.0,STARLINK-4719,PAYLOAD,2022-09-27 14:00:01,15.73194631,9.08e-05,53.2164,185.3327,140.2977,26.9034,0.00077257,0.00109198,0.0,0 STARLINK-4719,1 53774U 22111B   22270.58334491  .00109198  00000-0  77257-3 0  9992,2 53774  53.2164 185.3327 0000908 140.2977  26.9034 15.73194631  1303,6727.91,91.533,350.386,349.165,0.0
53774.0,STARLINK-4719,PAYLOAD,2022-09-27 22:00:01,15.73305723,0.0001002999999999,53.2163,183.6842,131.1145,125.115,-0.00048819,-0.00068883,0.0,0 STARLINK-4719,1 53774U 22111B   22270.91668981 -.00068883  00000-0 -48819-3 0  9992,2 53774  53.2163 183.6842 0001003 131.1145 125.1150 15.73305723  1305,6727.594,91.527,350.134,348.784,0.0
53774.0,STARLINK-4719,PAYLOAD,2022-09-28 06:00:00,15.73269014,9.2e-05,53.2158,182.0358,119.8429,225.3422,0.00017698,0.00024363,0.0,0 STARLINK-4719,1 53774U 22111B   22271.25001157  .00024363  00000-0  17698-3 0  9990,2 53774  53.2158 182.0358 0000920 119.8429 225.3422 15.73269014  2633,6727.698,91.529,350.182,348.944,0.0
53774.0,STARLINK-4719,PAYLOAD,2022-09-28 14:00:01,15.73265461,0.0001127999999999,53.2159,180.384,136.4414,297.7772,-0.0005707999999999,-0.0008019,0.0,0 STARLINK-4719,1 53774U 22111B   22271.58334491 -.00080190  00000-0 -57080-3 0  9997,2 53774  53.2159 180.3840 0001128 136.4414 297.7772 15.73265461  2690,6727.709,91.529,350.332,348.815,0.0
53774.0,STARLINK-4719,PAYLOAD,2022-09-28 22:00:00,15.73210423,0.0001167,53.2161,178.7354,123.5469,39.5929,-0.0011585,-0.00160217,0.0,0 STARLINK-4719,1 53774U 22111B   22271.91667824 -.00160217  00000-0 -11585-2 0  9991,2 53774  53.2161 178.7354 0001167 123.5469  39.5929 15.73210423  2744,6727.865,91.533,350.516,348.945,0.0
53774.0,STARLINK-4719,PAYLOAD,2022-09-29 06:00:00,15.73069088,0.0001229,53.2157,177.0869,113.7505,138.2659,0.00063083,0.0008835,0.0,0 STARLINK-4719,1 53774U 22111B   22272.25001157  .00088350  00000-0  63083-3 0  9996,2 53774  53.2157 177.0869 0001229 113.7505 138.2659 15.73069088  2794,6728.268,91.541,350.96,349.307,0.0
53774.0,STARLINK-4719,PAYLOAD,2022-09-29 14:00:01,15.73092952,0.0001336,53.2156,175.4359,124.8123,216.0079,0.00077777,0.00109463,0.0,0 STARLINK-4719,1 53774U 22111B   22272.58334491  .00109463  00000-0  77777-3 0  9996,2 53774  53.2156 175.4359 0001336 124.8123 216.0079 15.73092952  1300,6728.2,91.539,350.964,349.167,0.0
53774.0,STARLINK-4719,PAYLOAD,2022-09-29 20:00:01,15.73169003,0.0001361999999999,53.2156,174.1995,124.835,192.6687,0.00023668,0.00032682,0.0,0 STARLINK-4719,1 53774U 22111B   22272.83335648  .00032682  00000-0  23668-3 0  9997,2 53774  53.2156 174.1995 0001362 124.8350 192.6687 15.73169003  2883,6727.984,91.535,350.765,348.932,0.0
53774.0,STARLINK-4719,PAYLOAD,2022-09-29 22:00:00,15.73177646,0.0001291,53.2154,173.7879,122.1301,307.5292,0.00017674,0.00024232,0.0,0 STARLINK-4719,1 53774U 22111B   22272.91667824  .00024232  00000-0  17674-3 0  9992,2 53774  53.2154 173.7879 0001291 122.1301 307.5292 15.73177646  1302,6727.959,91.534,350.69199999999995,348.955,0.0
